ONEWEB-0584             
1 54651U 22166K   23127.50541429  .00000044  00000+0  74535-4 0  9998
2 54651  87.9157 110.3596 0001685  90.0269 270.1058 13.21813141 21822
ONEWEB-0585             
1 54652U 22166L   23127.45284871  .00000102  00000+0  21643-3 0  9994
2 54652  87.9134 110.3716 0002232  87.8582 272.2808 13.21826183 21357
ONEWEB-0586             
1 54653U 22166M   23127.46549174  .00000147  00000+0  32532-3 0  9994
2 54653  87.9206 110.3985 0001791  95.3781 264.7557 13.21829775 21357
ONEWEB-0587             
1 54654U 22166N   23127.45917634  .00000087  00000+0  14667-3 0  9996
2 54654  88.1215 110.2141 0005743 111.0339 249.1417 13.35291590 21917
ONEWEB-0589             
1 54655U 22166P   23127.46335822  .00000062  00000+0  11906-3 0  9997
2 54655  87.9207 110.3458 0001052 113.1418 246.9827 13.21827100 21847
ONEWEB-0590             
1 54656U 22166Q   23127.48859356  .00000005  00000+0 -19203-4 0  9990
2 54656  87.9140 110.3490 0002241  79.0213 281.1173 13.21821539 21827
ONEWEB-0591             
1 54657U 22166R   23127.50119096  .00000024  00000+0  26403-4 0  9994
2 54657  87.9208 110.3397 0001878  87.7430 272.3919 13.21823619 21855
ONEWEB-0592             
1 54658U 22166S   23124.83334491  .00047693  00000+0  11488+0 0  9991
2 54658  87.9275 110.8190 0001773  84.5073 177.9450 13.21803164 21389
ONEWEB-0593             
1 54659U 22166T   23127.45071849  .00000114  00000+0  24560-3 0  9994
2 54659  87.9284 110.3389 0001787  91.4062 268.7276 13.21827935 21371
ONEWEB-0594             
1 54660U 22166U   23127.46964699  .00000026  00000+0  31807-4 0  9996
2 54660  87.9280 110.2877 0002114  80.9008 279.2365 13.21825243 21396
ONEWEB-0595             
1 54661U 22166V   23127.44653606  .00000111  00000+0  23818-3 0  9995
2 54661  87.9128 110.3782 0002268  83.9668 276.1724 13.21822436 21362
ONEWEB-0596             
1 54662U 22166W   23127.49698233 -.00000027  00000+0 -97217-4 0  9999
2 54662  87.9158 110.3568 0001593  86.1167 274.0149 13.21827330 21374
ONEWEB-0597             
1 54663U 22166X   23127.47806750  .00000062  00000+0  11844-3 0  9991
2 54663  87.9151 110.3644 0001799  97.6736 262.4602 13.21824098 21373
ONEWEB-0600             
1 54664U 22166Y   23127.45913465  .00000061  00000+0  11498-3 0  9996
2 54664  87.9207 110.3838 0001949  94.8485 265.2872 13.21827643 21344
ONEWEB-0601             
1 54665U 22166Z   23127.47170544  .00000052  00000+0  76264-4 0  9995
2 54665  88.1162 110.0454 0001702 101.0467 259.0866 13.35347601 21482
ONEWEB-0602             
1 54666U 22166AA  23127.49482788 -.00001168  00000+0 -28593-2 0  9995
2 54666  87.9304 110.2858 0001763  92.3685 267.7651 13.21825326 21386
ONEWEB-0603             
1 54667U 22166AB  23127.49910829  .00000048  00000+0  85831-4 0  9992
2 54667  87.9140 110.3667 0001579 103.6531 256.4779 13.21820777 21319
ONEWEB-0604             
1 54668U 22166AC  23127.48648008  .00000006  00000+0 -16635-4 0  9990
2 54668  87.9309 110.2839 0001760 108.2310 251.9015 13.21821513 21272
ONEWEB-0605             
1 54669U 22166AD  23127.48018521  .00000048  00000+0  83911-4 0  9998
2 54669  87.9161 110.4063 0001423  83.2070 276.9226 13.21823623 21344
ONEWEB-0606             
1 54670U 22166AE  23127.49512973  .00000070  00000+0  11143-3 0  9993
2 54670  88.1204 110.1919 0002038 109.6296 250.5066 13.35233145 21349
ONEWEB-0607             
1 54671U 22166AF  23127.46755291  .00000015  00000+0  40185-5 0  9992
2 54671  87.9295 110.2848 0001780  94.2302 265.9035 13.21821932 21831
ONEWEB-0608             
1 54672U 22166AG  23127.47385024  .00000022  00000+0  22231-4 0  9996
2 54672  87.9147 110.3980 0001281  96.6321 263.4959 13.21826436 21842
ONEWEB-0610             
1 54673U 22166AH  23127.45494187  .00000095  00000+0  19765-3 0  9993
2 54673  87.9133 110.4087 0001374  95.9015 264.2276 13.21828845 21759
ONEWEB-0611             
1 54674U 22166AJ  23127.44864254  .00000111  00000+0  23659-3 0  9995
2 54674  87.9157 110.3604 0002632  85.6907 274.4527 13.21827266 21279
ONEWEB-0612             
1 54675U 22166AK  23127.46124004  .00000087  00000+0  17895-3 0  9997
2 54675  87.9267 110.3248 0001596  86.8742 273.2574 13.21822185 21739
ONEWEB-0615             
1 54676U 22166AL  23127.51802384  .00000058  00000+0  10854-3 0  9994
2 54676  87.9127 110.3554 0001865  95.8984 264.2363 13.21821449 21280
ONEWEB-0655             
1 54677U 22166AM  23127.49280201 -.00000013  00000+0 -63391-4 0  9998
2 54677  87.9115 110.3387 0001894  89.0864 271.0487 13.21824228 21748
ONEWEB-0659             
1 54678U 22166AN  23127.50959924  .00000051  00000+0  93068-4 0  9990
2 54678  87.9206 110.3844 0002304  78.2992 281.8400 13.21831693 21363
ONEWEB-0685             
1 54679U 22166AP  23127.51171095  .00000052  00000+0  93311-4 0  9999
2 54679  87.9121 110.3431 0001456 105.8227 254.3067 13.21822766 21250
ONEWEB-0712             
1 54680U 22166AQ  23127.58334491  .00000017  00000+0  00000+0 0  9998
2 54680  87.2619  97.4781 0013561  97.2032 301.7709 13.91594941 22662
ONEWEB-0714             
1 54681U 22166AR  23127.51592257  .00000031  00000+0  44087-4 0  9992
2 54681  87.9119 110.3679 0001876  98.1157 262.0190 13.21828088 21375
ONEWEB-0532             
1 55140U 23004A   23127.58334491 -.00622894  00000+0 -26744+0 0  9990
2 55140  86.9048 236.8266 0002723 106.9813  72.1109 14.27655725 17391
ONEWEB-0533             
1 55141U 23004B   23127.58334491 -.00816359  00000+0 -21503+0 0  9990
2 55141  86.7352 236.2148 0003877 139.1313 123.2726 14.52227672  1306
ONEWEB-0541             
1 55142U 23004C   23127.58334491 -.00005802  00000+0 -13289-1 0  9998
2 55142  88.0372 246.2836 0001726  92.2861 252.0468 13.25741734 16867
ONEWEB-0543             
1 55143U 23004D   23127.32054182  .00002001  00000+0  36213-3 0  9997
2 55143  86.6282 236.2986 0004216 141.9509 218.2003 14.65908027 17400
ONEWEB-0544             
1 55144U 23004E   23127.32503285  .00002620  00000+0  47557-3 0  9991
2 55144  86.6306 236.2078 0002728 121.1486 238.9996 14.65889144 17419
ONEWEB-0560             
1 55145U 23004F   23127.32143516  .00002271  00000+0  41145-3 0  9998
2 55145  86.6322 236.2258 0003666 109.8691 250.2918 14.65911111 17412
ONEWEB-0565             
1 55146U 23004G   23127.35926689  .00001872  00000+0  33884-3 0  9999
2 55146  86.6301 236.1404 0003093 121.3489 238.8028 14.65858434 17423
ONEWEB-0567             
1 55147U 23004H   23127.30262294  .00002029  00000+0  36722-3 0  9999
2 55147  86.6300 236.1757 0004353 158.3256 201.8143 14.65905870 17410
ONEWEB-0569             
1 55148U 23004J   23127.34958549  .00001979  00000+0  35867-3 0  9991
2 55148  86.6281 236.2095 0002815 160.2891 199.8432 14.65841998 17410
ONEWEB-0570             
1 55149U 23004K   23127.33640004  .00002054  00000+0  37039-3 0  9993
2 55149  86.6274 236.1966 0002524 126.8966 233.2479 14.66075634 17418
ONEWEB-0571             
1 55150U 23004L   23127.38209478  .00002060  00000+0  37284-3 0  9995
2 55150  86.6321 236.1945 0003777 137.3971 222.7537 14.65909723 17427
ONEWEB-0572             
1 55151U 23004M   23127.58334491 -.00807804  00000+0 -32907+0 0  9996
2 55151  86.8878 236.6295 0003608 118.0797 255.9275 14.30659366  1309
ONEWEB-0573             
1 55152U 23004N   23127.34968318  .00002080  00000+0  37698-3 0  9999
2 55152  86.6292 236.2280 0003232 136.3188 223.8282 14.65845312 17415
ONEWEB-0588             
1 55153U 23004P   23127.32658092  .00001733  00000+0  31305-3 0  9996
2 55153  86.6284 236.3071 0004776 158.4657 201.6758 14.65898016 17406
ONEWEB-0598             
1 55154U 23004Q   23127.36623399  .00002017  00000+0  46596-2 0  9996
2 55154  87.9409 246.9593 0001045 144.1808 215.9397 13.24519033 16759
ONEWEB-0599             
1 55155U 23004R   23127.58334491 -.00799530  00000+0 -32629+0 0  9997
2 55155  86.8841 236.6219 0013169 167.4376 226.1840 14.30489090  1306
ONEWEB-0614             
1 55156U 23004S   23127.37494878 -.00000085  00000+0 -22794-3 0  9997
2 55156  87.9413 246.9491 0001633  68.8643 291.2667 13.24645022 16738
ONEWEB-0616             
1 55157U 23004T   23127.58334491 -.00736432  00000+0 -20788+0 0  9994
2 55157  86.7474 236.4853 0013058 164.0480 122.4858 14.48581266 17410
ONEWEB-0617             
1 55158U 23004U   23126.06186029  .00004619  00000+0  10721-1 0  9990
2 55158  87.9430 247.2126 0001853 148.4459 211.6788 13.24446738 16588
ONEWEB-0618             
1 55159U 23004V   23126.05783013 -.00000771  00000+0 -32242-3 0  9997
2 55159  86.9104 237.8111 0014453 158.5297 201.6505 14.27397246 17150
ONEWEB-0619             
1 55160U 23004W   23127.58334491 -.00599290  00000+0 -25036+0 0  9998
2 55160  86.9169 236.7828 0014531 168.8989 281.7280 14.28906863  1306
ONEWEB-0620             
1 55161U 23004X   23124.76057494  .00001124  00000+0  25821-2 0  9998
2 55161  87.9412 247.4803 0001419 117.4219 242.7061 13.24544245 16372
ONEWEB-0621             
1 55162U 23004Y   23127.39825433  .00000095  00000+0  14412-3 0  9998
2 55162  87.7014 249.9153 0010397 194.9593 165.1247 13.41775121 16488
ONEWEB-0622             
1 55163U 23004Z   23127.58334491 -.00005763  00000+0 -13455-1 0  9992
2 55163  87.9437 246.8921 0000150 203.5538 108.4552 13.24465135  1307
ONEWEB-0623             
1 55164U 23004AA  23127.58334491 -.00543255  00000+0 -23083+0 0  9992
2 55164  86.9240 236.8548 0013626 173.9671 131.4594 14.27782567  1300
ONEWEB-0624             
1 55165U 23004AB  23127.58334491  .00014717  00000+0  26843-2 0  9997
2 55165  86.6331 236.0418 0000300 311.7453 259.3716 14.65925208 17454
ONEWEB-0625             
1 55166U 23004AC  23127.58334491 -.00690824  00000+0 -31780+0 0  9992
2 55166  86.9383 236.9335 0013086 166.0285  66.0559 14.23849188  1302
ONEWEB-0626             
1 55167U 23004AD  23127.58334491 -.00739416  00000+0 -33285+0 0  9996
2 55167  86.9407 236.8637 0014261 175.6045  95.3487 14.25164978 17390
